satname,norad_id,inclination_deg,eccentricity,mean_motion_rev_per_day,perigee_km,apogee_km,l1,l2
STARLINK-1168,45072,53.0533,0.0001166,15.06403202,546.3942497892485,548.0092387844161,1 45072U 20006AE  25295.06202998  .00005653  00000+0  39808-3 0  9994,2 45072  53.0533 168.9424 0001166  97.2151 262.8971 15.06403202315841
STARLINK-1172,45074,53.0538,0.0001451,15.06396231,546.2182396526514,548.2279791564006,1 45074U 20006AG  25295.60386478  .00001151  00000+0  96151-4 0  9996,2 45074  53.0538 166.5136 0001451 100.1445 259.9707 15.06396231315925
STARLINK-1153,45080,53.0508,0.0001177,15.06396358,546.4076053271592,548.037835005287,1 45080U 20006AN  25295.38271041  .00003157  00000+0  23078-3 0  9992,2 45080  53.0508 167.5018 0001177 100.0948 260.0174 15.06396358315898
STARLINK-1151,45081,53.0537,0.0001506,15.06400306,546.1676627409224,548.2535774440939,1 45081U 20006AP  25295.36797630  .00004321  00000+0  30879-3 0  9999,2 45081  53.0537 167.6447 0001506  82.6750 277.4410 15.06400306315894
STARLINK-1190,45083,53.0414,0.0004197,15.85413889,312.350402894107,317.968756042912,1 45083U 20006AR  25295.91668980  .00280011  00000+0  11114-2 0  9999,2 45083  53.0414 120.8819 0004197 176.2982 271.5932 15.85413889  5987
STARLINK-1173,45084,53.0347,0.000533,16.09233907,245.41348468462093,252.47795486389896,1 45084U 20006AS  25295.81978185  .00837330  39592-3  91342-3 0  9996,2 45084  53.0347  81.8162 0005330 334.8146  25.2626 16.09233907317139
STARLINK-1185,45087,53.0523,0.0001388,15.06388195,546.2864953975786,548.2089822010694,1 45087U 20006AV  25295.60939950  .00000714  00000+0  66864-4 0  9991,2 45087  53.0523 146.4814 0001388 102.8519 257.2625 15.06388195316216
STARLINK-1183,45088,53.0522,0.0001388,15.06389662,546.2819998228624,548.2044853782081,1 45088U 20006AW  25295.03440432  .00029649  00000+0  20016-2 0  9996,2 45088  53.0522 149.0674 0001388 110.4160 249.6978 15.06389662316122
STARLINK-1176,45090,53.0413,0.000659,16.03639113,259.97313175096497,268.72793031686706,1 45090U 20006AY  25295.79635904  .00617533  19071-3  95310-3 0  9999,2 45090  53.0413  80.4715 0006590 341.5196  18.5594 16.03639113317152
STARLINK-1142,45093,53.0342,0.0002288,15.58489563,390.47881847630015,393.5768459035098,1 45093U 20006BB  25295.91668980  .00231214  00000+0  28960-2 0  9998,2 45093  53.0342  81.6639 0002288 280.1459 320.2090 15.58489563  5872
STARLINK-1152,45096,53.0489,0.0008926,15.23080546,490.41888683424077,502.69158741595675,1 45096U 20006BE  25295.80149697  .00013788  00000+0  58990-3 0  9999,2 45096  53.0489 128.8816 0008926 134.9846 225.1875 15.23080546316474
STARLINK-1184,45098,53.0538,0.0001386,15.06383515,546.3022222369164,548.2219428626004,1 45098U 20006BG  25295.77895873  .00000197  00000+0  32129-4 0  9998,2 45098  53.0538 145.7238 0001386  99.7256 260.3889 15.06383515316236
STARLINK-1193,45100,53.0535,0.0001377,15.0638482,546.3044559397422,548.2117097455575,1 45100U 20006BJ  25295.77527089  .00002084  00000+0  15883-3 0  9997,2 45100  53.0535 145.7396 0001377  82.0167 278.0978 15.06384820316233
STARLINK-1143,45179,53.0527,0.000791,15.39190912,443.1007179117878,453.9004585763905,1 45179U 20012B   25295.36628389  .00090526  00000+0  22760-2 0  9999,2 45179  53.0527 273.4267 0007910  15.4091 344.7152 15.39190912314473
STARLINK-1202,45183,53.0541,0.0001374,15.06403654,546.248817624064,548.151900330311,1 45183U 20012F   25295.43984787  .00005920  00000+0  41595-3 0  9991,2 45183  53.0541 307.2479 0001374  94.6412 265.4734 15.06403654314007
STARLINK-1216,45185,53.0533,0.0001455,15.06392649,546.2264462928852,548.2417292794298,1 45185U 20012H   25295.43248416  .00011146  00000+0  76610-3 0  9998,2 45185  53.0533 307.2793 0001455  76.0668 284.0483 15.06392649313947
STARLINK-1225,45187,53.0537,9.57e-05,15.06406254,546.5296363726711,547.855144417992,1 45187U 20012K   25295.45090904  .00008839  00000+0  61142-3 0  9998,2 45187  53.0537 307.1974 0000957  76.1289 283.9807 15.06406254313990
STARLINK-1230,45189,53.0544,0.0001545,15.06407993,546.1170980854295,548.2570232201715,1 45189U 20012M   25295.45459294  .00008953  00000+0  61902-3 0  9992,2 45189  53.0544 307.1831 0001545  75.3645 284.7515 15.06407993311223
STARLINK-1234,45190,53.053,0.0001103,15.32059901,468.9120462784267,470.4226719200433,1 45190U 20012N   25295.91668980  .01685578  00000+0  48558-1 0  9994,2 45190  53.0530 263.8374 0001103  68.2410 111.0635 15.32059901  5744
STARLINK-1269,45197,53.0532,0.000137,15.06395961,546.2751624708562,548.1727113675734,1 45197U 20012V   25295.33295431  .00004272  00000+0  30553-3 0  9997,2 45197  53.0532 307.7304 0001370  98.9060 261.2084 15.06395961313952
STARLINK-1154,45198,53.0548,0.0001551,15.06384802,546.1840092250795,548.3322667968905,1 45198U 20012W   25295.25739703  .00000957  00000+0  83176-4 0  9990,2 45198  53.0548 288.0667 0001551  95.8788 264.2378 15.06384802314195
STARLINK-1199,45201,53.0537,0.0001451,15.06409979,546.1761102713372,548.1858375473648,1 45201U 20012Z   25295.26844996  .00003080  00000+0  22555-3 0  9990,2 45201  53.0537 288.0157 0001451  90.7923 269.3233 15.06409979314252
STARLINK-1209,45206,53.0585,0.000184,15.29944102,474.71808382882136,477.24039860558787,1 45206U 20012AE  25295.91668980  .00031315  00000+0  10733-2 0  9990,2 45206  53.0585 264.1353 0001840  87.8390 280.0608 15.29944102  5799
STARLINK-1210,45207,53.0258,0.0012614,15.54226623,395.8461787368242,412.9571673011169,1 45207U 20012AF  25295.91668980  .00110221  00000+0  16404-2 0  9996,2 45207  53.0258 227.9546 0012614  33.5615  97.0450 15.54226623  5865
STARLINK-1231,45212,53.0517,0.0005501,15.11524648,527.7486233543841,535.3506605978864,1 45212U 20012AL  25295.38376209  .00045594  00000+0  26597-2 0  9997,2 45212  53.0517 286.1898 0005501   8.2066 351.9014 15.11524648314246
STARLINK-1271,45217,53.0532,0.0001339,15.06405962,546.265983602023,548.1205870524336,1 45217U 20012AR  25295.38639869  .00002587  00000+0  19245-3 0  9994,2 45217  53.0532 287.4853 0001339  87.7726 272.3416 15.06405962314279
STARLINK-1191,45222,53.0541,0.00016,15.06387516,546.1417579733143,548.3578817556709,1 45222U 20012AW  25295.32927016  .00002043  00000+0  15608-3 0  9994,2 45222  53.0541 267.7417 0001600  96.0192 264.0980 15.06387516314541
STARLINK-1212,45223,53.0539,0.0001364,15.06391456,546.293123076377,548.1823653065921,1 45223U 20012AX  25295.21508061  .00002183  00000+0  16546-3 0  9995,2 45223  53.0539 268.9084 0001364  93.4545 266.6601 15.06391456314526
STARLINK-1215,45225,53.0544,0.0001412,15.06377454,546.3027900694551,548.2585280163694,1 45225U 20012AZ  25295.30346400  .00002750  00000+0  20356-3 0  9998,2 45225  53.0544 267.8578 0001412 100.1160 259.9989 15.06377454314495
STARLINK-1221,45227,53.0687,0.0001683,15.36401589,455.6102422348613,457.9108687520393,1 45227U 20012BB  25295.47380955  .00017928  00000+0  50716-3 0  9997,2 45227  53.0687 201.8265 0001683 321.9606  38.1277 15.36401589315425
STARLINK-1222,45228,53.0549,0.0001407,15.06389023,546.2707997909047,548.2196023422848,1 45228U 20012BC  25295.33664353  .00000385  00000+0  44722-4 0  9990,2 45228  53.0549 267.7095 0001407  93.6494 266.4656 15.06389023314439
STARLINK-1226,45229,53.0538,0.0001248,15.06380169,546.4080466785172,548.1366288492236,1 45229U 20012BD  25295.23345108 -.00003742  00000+0 -23256-3 0  9994,2 45229  53.0538 268.1708 0001248  77.4387 282.6742 15.06380169314425
STARLINK-1227,45230,53.0547,0.0001564,15.06425795,546.0493889565796,548.2156132565251,1 45230U 20012BE  25295.36242194  .00006912  00000+0  48210-3 0  9998,2 45230  53.0547 267.5919 0001564  91.4290 268.6878 15.06425795314568
STARLINK-1246,45235,53.0543,0.0001296,15.0640541,546.297454092849,548.092500141317,1 45235U 20012BK  25295.31083793  .00007556  00000+0  52551-3 0  9994,2 45235  53.0543 307.8252 0001296  96.9169 263.1967 15.06405410314004
STARLINK-1270,45237,53.054,0.000138,15.06387734,546.2934484278048,548.2048550056788,1 45237U 20012BM  25295.31452382  .00000466  00000+0  50222-4 0  9997,2 45237  53.0540 267.8061 0001380 106.8032 253.3109 15.06387734314546
STARLINK-1279,45360,53.0556,9.01e-05,15.28921732,478.4165750056054,479.65223729299396,1 45360U 20019A   25295.91668980  .01080178  00000+0  34673-1 0  9998,2 45360  53.0556  34.1328 0000901  65.1325 328.0482 15.28921732  5683
STARLINK-1301,45361,53.0547,0.0001385,15.31044185,471.7468030880491,473.64448373027426,1 45361U 20019B   25295.91668980 -.00009492  00000+0 -30063-3 0  9991,2 45361  53.0547  43.9829 0001385  63.7622 111.4596 15.31044185  5782
STARLINK-1306,45362,53.0477,0.0005836,15.66447026,365.14266168264294,373.0180137592297,1 45362U 20019C   25295.91668980  .00144385  00000+0  13424-2 0  9992,2 45362  53.0477  36.1967 0005836 254.2786  95.6599 15.66447026  5892
STARLINK-1262,45366,53.0547,0.0001313,15.06384016,546.3512423314114,548.1698517272607,1 45366U 20019G   25295.55779359  .00000950  00000+0  82663-4 0  9991,2 45366  53.0547  66.7125 0001313  88.3647 271.7492 15.06384016308918
STARLINK-1273,45367,53.0542,0.0001212,15.0639278,546.394331359611,548.0730412139674,1 45367U 20019H   25295.51356124  .00000181  00000+0  31017-4 0  9992,2 45367  53.0542  66.9136 0001212  79.5625 280.5501 15.06392780308909
STARLINK-1276,45368,53.0556,0.0001624,15.06386464,546.1283607962177,548.3777274825552,1 45368U 20019J   25295.55040740 -.00001381  00000+0 -73872-4 0  9991,2 45368  53.0556  66.7501 0001624  92.0323 268.0852 15.06386464308914
STARLINK-1277,45369,53.0561,0.0001633,15.06375391,546.1560602694626,548.4179037419863,1 45369U 20019K   25295.80852727  .00001054  00000+0  89692-4 0  9998,2 45369  53.0561  66.2166 0001633  80.9285 279.1889 15.06375391308949
STARLINK-1281,45370,53.0545,0.0001161,15.06388637,546.4423471047257,548.0504211265179,1 45370U 20019L   25295.80474551  .00000759  00000+0  69863-4 0  9994,2 45370  53.0545  65.6095 0001161  96.5483 263.5638 15.06388637308953
